start=new Date('2022-05-25T00:00:00.000Z').valueOf();
sats=[{"REF_FRAME":"TEME","MEAN_MOTION_DOT":"0.00001090","ARG_OF_PERICENTER":"48.3197","FILE":"3462176","PERIAPSIS":"545.923","OBJECT_ID":"2020-035AC","EPOCH":"2022-05-24T10:40:57.094464","EPHEMERIS_TYPE":"0","REV_AT_EPOCH":"11008","MEAN_MOTION_DDOT":"0.0000000000000","ECCENTRICITY":"0.00018660","TIME_SYSTEM":"UTC","BSTAR":"0.00009204100000","SEMIMAJOR_AXIS":"6925.350","MEAN_ANOMALY":"311.7951","CENTER_NAME":"EARTH","COUNTRY_CODE":"US","SITE":"AFETR","DECAY_DATE":null,"INCLINATION":"53.0522","MEAN_ELEMENT_THEORY":"SGP4","PERIOD":"95.592","RCS_SIZE":"LARGE","ELEMENT_SET_NO":"999","OBJECT_NAME":"STARLINK-1399","APOAPSIS":"548.508","NORAD_CAT_ID":"45683","CLASSIFICATION_TYPE":"U","GP_ID":"204415406","RA_OF_ASC_NODE":"155.2280","TLE_LINE1":"1 45683U 20035AC  22144.44510526  .00001090  00000-0  92041-4 0  9996","MEAN_MOTION":"15.06399399","LAUNCH_DATE":"2020-06-04","OBJECT_TYPE":"PAYLOAD","TLE_LINE2":"2 45683  53.0522 155.2280 0001866  48.3197 311.7951 15.06399399110082"},{"RA_OF_ASC_NODE":"153.8317","GP_ID":"204452516","MEAN_MOTION":"15.06405557","TLE_LINE1":"1 45684U 20035AD  22144.75472201  .00003265  00000-0  23796-3 0  9994","LAUNCH_DATE":"2020-06-04","OBJECT_TYPE":"PAYLOAD","TLE_LINE2":"2 45684  53.0538 153.8317 0001851  53.5091 306.6069 15.06405557110133","INCLINATION":"53.0538","DECAY_DATE":null,"RCS_SIZE":"LARGE","MEAN_ELEMENT_THEORY":"SGP4","PERIOD":"95.592","ELEMENT_SET_NO":"999","OBJECT_NAME":"STARLINK-1401","APOAPSIS":"548.478","NORAD_CAT_ID":"45684","CLASSIFICATION_TYPE":"U","TIME_SYSTEM":"UTC","BSTAR":"0.00023796000000","SEMIMAJOR_AXIS":"6925.332","CENTER_NAME":"EARTH","MEAN_ANOMALY":"306.6069","COUNTRY_CODE":"US","SITE":"AFETR","REF_FRAME":"TEME","MEAN_MOTION_DOT":"0.00003265","ARG_OF_PERICENTER":"53.5091","FILE":"3462783","PERIAPSIS":"545.915","EPHEMERIS_TYPE":"0","EPOCH":"2022-05-24T18:06:47.981664","OBJECT_ID":"2020-035AD","REV_AT_EPOCH":"11013","ECCENTRICITY":"0.00018510","MEAN_MOTION_DDOT":"0.0000000000000"},{"OBJECT_NAME":"STARLINK-1402","ELEMENT_SET_NO":"999","MEAN_ELEMENT_THEORY":"SGP4","PERIOD":"95.592","RCS_SIZE":"LARGE","DECAY_DATE":null,"INCLINATION":"53.0535","CLASSIFICATION_TYPE":"U","NORAD_CAT_ID":"45685","APOAPSIS":"548.616","TLE_LINE1":"1 45685U 20035AE  22144.75103766  .00002171  00000-0  16461-3 0  9998","MEAN_MOTION":"15.06399125","GP_ID":"204453268","RA_OF_ASC_NODE":"153.8624","TLE_LINE2":"2 45685  53.0535 153.8624 0002021  45.0456 315.0696 15.06399125110136","LAUNCH_DATE":"2020-06-04","OBJECT_TYPE":"PAYLOAD","FILE":"3462783","MEAN_MOTION_DOT":"0.00002171","ARG_OF_PERICENTER":"45.0456","REF_FRAME":"TEME","MEAN_MOTION_DDOT":"0.0000000000000","ECCENTRICITY":"0.00020210","REV_AT_EPOCH":"11013","OBJECT_ID":"2020-035AE","EPOCH":"2022-05-24T18:01:29.653824","EPHEMERIS_TYPE":"0","PERIAPSIS":"545.817","MEAN_ANOMALY":"315.0696","CENTER_NAME":"EARTH","SEMIMAJOR_AXIS":"6925.351","BSTAR":"0.00016461000000","TIME_SYSTEM":"UTC","SITE":"AFETR","COUNTRY_CODE":"US"},{"BSTAR":"0.00005257600000","TIME_SYSTEM":"UTC","MEAN_ANOMALY":"49.6555","CENTER_NAME":"EARTH","SEMIMAJOR_AXIS":"6925.385","SITE":"AFETR","COUNTRY_CODE":"US","REF_FRAME":"TEME","FILE":"3462783","ARG_OF_PERICENTER":"310.4134","MEAN_MOTION_DOT":"0.00000501","EPOCH":"2022-05-24T17:50:52.655136","OBJECT_ID":"2020-035AF","EPHEMERIS_TYPE":"0","PERIAPSIS":"544.874","MEAN_MOTION_DDOT":"0.0000000000000","ECCENTRICITY":"0.00034300","REV_AT_EPOCH":"11013","TLE_LINE1":"1 45686U 20035AF  22144.74366499  .00000501  00000-0  52576-4 0  9995","MEAN_MOTION":"15.06388230","GP_ID":"204453512","RA_OF_ASC_NODE":"153.8783","TLE_LINE2":"2 45686  53.0529 153.8783 0003430 310.4134  49.6555 15.06388230110132","OBJECT_TYPE":"PAYLOAD","LAUNCH_DATE":"2020-06-04","MEAN_ELEMENT_THEORY":"SGP4","PERIOD":"95.593","RCS_SIZE":"LARGE","DECAY_DATE":null,"INCLINATION":"53.0529","OBJECT_NAME":"STARLINK-1404","ELEMENT_SET_NO":"999","NORAD_CAT_ID":"45686","APOAPSIS":"549.625","CLASSIFICATION_TYPE":"U"},{"LAUNCH_DATE":"2020-06-04","OBJECT_TYPE":"PAYLOAD","TLE_LINE2":"2 45688  53.0550 153.8998 0002167  44.1628 315.9533 15.06388219110122","GP_ID":"204451767","RA_OF_ASC_NODE":"153.8998","TLE_LINE1":"1 45688U 20035AH  22144.73630678  .00001093  00000-0  92296-4 0  9999","MEAN_MOTION":"15.06388219","APOAPSIS":"548.750","NORAD_CAT_ID":"45688","CLASSIFICATION_TYPE":"U","INCLINATION":"53.0550","DECAY_DATE":null,"MEAN_ELEMENT_THEORY":"SGP4","PERIOD":"95.593","RCS_SIZE":"LARGE","ELEMENT_SET_NO":"999","OBJECT_NAME":"STARLINK-1408","COUNTRY_CODE":"US","SITE":"AFETR","TIME_SYSTEM":"UTC","BSTAR":"0.00009229600000","SEMIMAJOR_AXIS":"6925.385","MEAN_ANOMALY":"315.9533","CENTER_NAME":"EARTH","PERIAPSIS":"545.749","EPOCH":"2022-05-24T17:40:16.905792","OBJECT_ID":"2020-035AH","EPHEMERIS_TYPE":"0","REV_AT_EPOCH":"11012","MEAN_MOTION_DDOT":"0.0000000000000","ECCENTRICITY":"0.00021670","REF_FRAME":"TEME","MEAN_MOTION_DOT":"0.00001093","ARG_OF_PERICENTER":"44.1628","FILE":"3462783"},{"MEAN_MOTION":"15.06386790","TLE_LINE1":"1 45689U 20035AJ  22144.76210237 -.00000267  00000-0  96893-6 0  9990","RA_OF_ASC_NODE":"153.8059","GP_ID":"204452017","TLE_LINE2":"2 45689  53.0562 153.8059 0002033  50.5000 309.6168 15.06386790110048","LAUNCH_DATE":"2020-06-04","OBJECT_TYPE":"PAYLOAD","RCS_SIZE":"LARGE","PERIOD":"95.593","MEAN_ELEMENT_THEORY":"SGP4","INCLINATION":"53.0562","DECAY_DATE":null,"OBJECT_NAME":"STARLINK-1413","ELEMENT_SET_NO":"999","NORAD_CAT_ID":"45689","APOAPSIS":"548.662","CLASSIFICATION_TYPE":"U","BSTAR":"0.00000096893000","TIME_SYSTEM":"UTC","CENTER_NAME":"EARTH","MEAN_ANOMALY":"309.6168","SEMIMAJOR_AXIS":"6925.389","SITE":"AFETR","COUNTRY_CODE":"US","REF_FRAME":"TEME","FILE":"3462783","MEAN_MOTION_DOT":"-0.00000267","ARG_OF_PERICENTER":"50.5000","EPHEMERIS_TYPE":"0","OBJECT_ID":"2020-035AJ","EPOCH":"2022-05-24T18:17:25.644768","PERIAPSIS":"545.846","ECCENTRICITY":"0.00020330","MEAN_MOTION_DDOT":"0.0000000000000","REV_AT_EPOCH":"11004"},{"APOAPSIS":"550.881","NORAD_CAT_ID":"45690","CLASSIFICATION_TYPE":"U","INCLINATION":"52.9987","DECAY_DATE":null,"PERIOD":"95.644","MEAN_ELEMENT_THEORY":"SGP4","RCS_SIZE":"LARGE","ELEMENT_SET_NO":"999","OBJECT_NAME":"STARLINK-1414","LAUNCH_DATE":"2020-06-04","OBJECT_TYPE":"PAYLOAD","TLE_LINE2":"2 45690  52.9987 153.9634 0001711  55.3358 304.7791 15.05590523110082","GP_ID":"204452769","RA_OF_ASC_NODE":"153.9634","TLE_LINE1":"1 45690U 20035AK  22144.72819894  .00004135  00000-0  30270-3 0  9993","MEAN_MOTION":"15.05590523","PERIAPSIS":"548.510","OBJECT_ID":"2020-035AK","EPOCH":"2022-05-24T17:28:36.388416","EPHEMERIS_TYPE":"0","REV_AT_EPOCH":"11008","MEAN_MOTION_DDOT":"0.0000000000000","ECCENTRICITY":"0.00017110","REF_FRAME":"TEME","MEAN_MOTION_DOT":"0.00004135","ARG_OF_PERICENTER":"55.3358","FILE":"3462783","COUNTRY_CODE":"US","SITE":"AFETR","TIME_SYSTEM":"UTC","BSTAR":"0.00030270000000","SEMIMAJOR_AXIS":"6927.831","MEAN_ANOMALY":"304.7791","CENTER_NAME":"EARTH"},{"MEAN_MOTION_DDOT":"0.0000000000000","ECCENTRICITY":"0.00019540","REV_AT_EPOCH":"11013","EPOCH":"2022-05-24T17:56:10.932864","OBJECT_ID":"2020-035AL","EPHEMERIS_TYPE":"0","PERIAPSIS":"545.864","FILE":"3462783","MEAN_MOTION_DOT":"0.00001355","ARG_OF_PERICENTER":"50.9625","REF_FRAME":"TEME","SITE":"AFETR","COUNTRY_CODE":"US","MEAN_ANOMALY":"309.1537","CENTER_NAME":"EARTH","SEMIMAJOR_AXIS":"6925.353","BSTAR":"0.00010988000000","TIME_SYSTEM":"UTC","CLASSIFICATION_TYPE":"U","NORAD_CAT_ID":"45691","APOAPSIS":"548.571","OBJECT_NAME":"STARLINK-1415","ELEMENT_SET_NO":"999","MEAN_ELEMENT_THEORY":"SGP4","PERIOD":"95.592","RCS_SIZE":"LARGE","DECAY_DATE":null,"INCLINATION":"53.0529","TLE_LINE2":"2 45691  53.0529 153.8613 0001954  50.9625 309.1537 15.06398676110139","OBJECT_TYPE":"PAYLOAD","LAUNCH_DATE":"2020-06-04","TLE_LINE1":"1 45691U 20035AL  22144.74734876  .00001355  00000-0  10988-3 0  9997","MEAN_MOTION":"15.06398676","GP_ID":"204453013","RA_OF_ASC_NODE":"153.8613"},{"MEAN_ANOMALY":"308.6956","CENTER_NAME":"EARTH","SEMIMAJOR_AXIS":"6925.340","BSTAR":"0.00005948400000","TIME_SYSTEM":"UTC","SITE":"AFETR","COUNTRY_CODE":"US","FILE":"3462783","ARG_OF_PERICENTER":"51.4196","MEAN_MOTION_DOT":"0.00000605","REF_FRAME":"TEME","MEAN_MOTION_DDOT":"0.0000000000000","ECCENTRICITY":"0.00018160","REV_AT_EPOCH":"11012","EPOCH":"2022-05-24T17:45:34.229664","OBJECT_ID":"2020-035AM","EPHEMERIS_TYPE":"0","PERIAPSIS":"545.947","MEAN_MOTION":"15.06402754","TLE_LINE1":"1 45692U 20035AM  22144.73997951  .00000605  00000-0  59484-4 0  9994","GP_ID":"204452267","RA_OF_ASC_NODE":"153.9035","TLE_LINE2":"2 45692  53.0522 153.9035 0001816  51.4196 308.6956 15.06402754110129","OBJECT_TYPE":"PAYLOAD","LAUNCH_DATE":"2020-06-04","OBJECT_NAME":"STARLINK-1416","ELEMENT_SET_NO":"999","MEAN_ELEMENT_THEORY":"SGP4","PERIOD":"95.592","RCS_SIZE":"LARGE","DECAY_DATE":null,"INCLINATION":"53.0522","CLASSIFICATION_TYPE":"U","NORAD_CAT_ID":"45692","APOAPSIS":"548.463"},{"SITE":"AFETR","COUNTRY_CODE":"US","BSTAR":"0.00002987300000","TIME_SYSTEM":"UTC","CENTER_NAME":"EARTH","MEAN_ANOMALY":"306.4736","SEMIMAJOR_AXIS":"6925.372","EPHEMERIS_TYPE":"0","EPOCH":"2022-05-24T18:12:07.555392","OBJECT_ID":"2020-035AN","PERIAPSIS":"546.088","ECCENTRICITY":"0.00016590","MEAN_MOTION_DDOT":"0.0000000000000","REV_AT_EPOCH":"11012","REF_FRAME":"TEME","FILE":"3462783","MEAN_MOTION_DOT":"0.00000163","ARG_OF_PERICENTER":"53.6406","TLE_LINE2":"2 45693  53.0538 153.8208 0001659  53.6406 306.4736 15.06392332110123","LAUNCH_DATE":"2020-06-04","OBJECT_TYPE":"PAYLOAD","MEAN_MOTION":"15.06392332","TLE_LINE1":"1 45693U 20035AN  22144.75842078  .00000163  00000-0  29873-4 0  9994","RA_OF_ASC_NODE":"153.8208","GP_ID":"204452517","NORAD_CAT_ID":"45693","APOAPSIS":"548.386","CLASSIFICATION_TYPE":"U","RCS_SIZE":"LARGE","PERIOD":"95.593","MEAN_ELEMENT_THEORY":"SGP4","DECAY_DATE":null,"INCLINATION":"53.0538","OBJECT_NAME":"STARLINK-1417","ELEMENT_SET_NO":"999"}];
